GLOBALSTAR M063 [+]     
1 26081U 00008A   23312.16827345 -.00000036  00000+0  68028-3 0  9998
2 26081  51.9944 217.5366 0003748 276.9634 231.3816 11.86147664 87980
GLOBALSTAR M062 [-]     
1 26082U 00008B   23311.50911740 -.00000098  00000+0 -78121-6 0  9996
2 26082  51.9874  23.8976 0006321 297.3290  75.5748 12.43419454423511
GLOBALSTAR M060 [-]     
1 26083U 00008C   23312.32257274 -.00000146  00000+0 -54489-3 0  9995
2 26083  52.0022 258.4912 0004096  19.7151 147.4857 12.17617989 81057
GLOBALSTAR M064 [-]     
1 26084U 00008D   23311.78691528 -.00000068  00000+0  21537-3 0  9999
2 26084  52.0045 324.2970 0001630  14.9703 345.1178 11.88511573 97363
GLOBALSTAR M065 [+]     
1 31571U 07020A   23312.20269236 -.00000066  00000+0  21049-3 0  9998
2 31571  51.9889 212.7760 0010835  87.5908  77.3566 12.61957486759608
GLOBALSTAR M069 [+]     
1 31573U 07020C   23311.38059745 -.00000052  00000+0  28637-3 0  9995
2 31573  51.9933 171.3938 0001224  78.8274  93.2273 12.62260363760312
GLOBALSTAR M072 [+]     
1 31574U 07020D   23312.32540979 -.00000060  00000+0  24406-3 0  9994
2 31574  52.0085 264.2575 0000826  48.2862 116.4994 12.62268475758860
GLOBALSTAR M071 [P]     
1 31576U 07020F   23311.78246229 -.00000054  00000+0  27586-3 0  9991
2 31576  52.0049 175.1642 0000876  66.3287  10.8007 12.62272517760287
